ONEWEB-0387             
1 49313U 21090AL  25329.88391521 -.00000067  00000+0 -19679-3 0  9999
2 49313  87.9183 315.0148 0001523  87.9760 272.1548 13.20772500202985
ONEWEB-0388             
1 49314U 21090AM  25330.14300318  .00000122  00000+0  27142-3 0  9999
2 49314  87.9195 345.3796 0001782  96.7135 263.4201 13.19728016199632
ONEWEB-0389             
1 50469U 21132A   25330.14538628  .00000061  00000+0  12338-3 0  9999
2 50469  87.9137  46.2461 0001534 114.1570 245.9722 13.17650164191349
ONEWEB-0390             
1 50470U 21132B   25330.14707793  .00000086  00000+0  18847-3 0  9990
2 50470  87.9129  46.2491 0001654  93.4781 266.6540 13.17647603191343
ONEWEB-0391             
1 50471U 21132C   25330.14876294  .00000057  00000+0  11287-3 0  9993
2 50471  87.9126  46.2586 0000945 116.8846 243.2382 13.17647550191346
ONEWEB-0392             
1 50472U 21132D   25330.17913503 -.00000229  00000+0 -62232-3 0  9991
2 50472  87.9133  46.2034 0001480 111.8599 248.2690 13.17648175191383
ONEWEB-0393             
1 50473U 21132E   25330.15227733  .00000150  00000+0  35432-3 0  9996
2 50473  87.9142  46.2306 0001561 107.4844 252.6458 13.17650807191375
ONEWEB-0394             
1 50474U 21132F   25330.12819682  .00000004  00000+0 -21545-4 0  9994
2 50474  87.9202  15.7703 0001725 103.1685 256.9640 13.18685109194831
